From:	Horizons Ephemeris System <horizons@ssd.jpl.nasa.gov>
Sent:	Friday, December 4, 2020 12:35 PM
Subject:	[Horizons] MAJOR BODY #C(usr={-90.,-80.,.600^G}@301)_T(301) (1/1)

 Automated mail xmit by MAIL_REQUEST, PID= 847 Fri Dec  4 10:34:52 2020
++++++++++++++++++++++++++++++++ (part 1 of 1)  +++++++++++++++++++++++++++++++
*******************************************************************************
 Revised: July 31, 2013             Moon / (Earth)                          301
 
 GEOPHYSICAL DATA (updated 2018-Aug-15):
  Vol. mean radius, km  = 1737.53+-0.03    Mass, x10^22 kg       =    7.349
  Radius (gravity), km  = 1738.0           Surface emissivity    =    0.92
  Radius (IAU), km      = 1737.4           GM, km^3/s^2          = 4902.800066
  Density, g/cm^3       =    3.3437        GM 1-sigma, km^3/s^2  =  +-0.0001  
  V(1,0)                =   +0.21          Surface accel., m/s^2 =    1.62
  Earth/Moon mass ratio = 81.3005690769    Farside crust. thick. = ~80 - 90 km
  Mean crustal density  = 2.97+-.07 g/cm^3 Nearside crust. thick.= 58+-8 km 
  Heat flow, Apollo 15  = 3.1+-.6 mW/m^2   Mean angular diameter = 31'05.2"
  Heat flow, Apollo 17  = 2.2+-.5 mW/m^2   Sid. rot. rate, rad/s = 0.0000026617
  Geometric Albedo      = 0.12             Mean solar day        = 29.5306 d
  Obliquity to orbit    = 6.67 deg         Orbit period          = 27.321582 d
  Semi-major axis, a    = 384400 km        Eccentricity          = 0.05490
  Mean motion, rad/s    = 2.6616995x10^-6  Inclination           = 5.145 deg
  Apsidal period        = 3231.50 d        Nodal period          = 6798.38 d
                                 Perihelion  Aphelion    Mean
  Solar Constant (W/m^2)         1414+-7     1323+-7     1368+-7
  Maximum Planetary IR (W/m^2)   1314        1226        1268
  Minimum Planetary IR (W/m^2)      5.2         5.2         5.2
********************************************************************************
 
 
*******************************************************************************
Ephemeris / MAIL_REQUEST Fri Dec  4 10:34:51 2020 Pasadena, USA  / Horizons
*******************************************************************************
Target body name: Moon (301)                      {source: DE431mx}
Center body name: Moon (301)                      {source: DE431mx}
Center-site name: (user defined site below)
*******************************************************************************
Start time      : A.D. 2020-Jan-01 00:00:00.0000 TDB
Stop  time      : A.D. 2039-Jan-01 00:00:00.0000 TDB
Step-size       : 10000 steps
*******************************************************************************
Center geodetic : 270.000000,-80.000000,0.6000000 {E-lon(deg),Lat(deg),Alt(km)}
Center cylindric: 270.000000,301.800533,-1711.596 {E-lon(deg),Dxy(km),Dz(km)}
Center pole/equ : IAU_MOON                        {East-longitude positive}
Center radii    : 1737.4 x 1737.4 x 1737.4 km     {Equator, meridian, pole}    
Output units    : KM-S
Output type     : GEOMETRIC cartesian states
Output format   : 3 (position, velocity, LT, range, range-rate)
Reference frame : Ecliptic of J2000.0
*******************************************************************************
JDTDB
   X     Y     Z
   VX    VY    VZ
   LT    RG    RR
*******************************************************************************
$$SOE
2459782.236000000 = A.D. 2022-Jul-21 17:39:50.4000 TDB 
   1.392627586761706E+02 -2.155387449231000E+02  1.718951114337717E+03
   6.560472046126451E-04  4.634259855072312E-04  4.958437545861334E-06
   5.797343974543885E-03  1.738000000000001E+03  3.393590229183626E-20
2459782.930000000 = A.D. 2022-Jul-22 10:19:12.0000 TDB 
   1.762232231052208E+02 -1.847360990425094E+02  1.719145703350640E+03
   5.741349630321288E-04  5.618037432062475E-04  1.517915706270473E-06
   5.797343974543886E-03  1.738000000000001E+03 -4.241987786479532E-21
2459783.624000000 = A.D. 2022-Jul-23 02:58:33.6000 TDB 
   2.078224650320759E+02 -1.484513162745758E+02  1.719132347937278E+03
   4.776061043193056E-04  6.458908628770413E-04 -1.962576734848104E-06
   5.797343974543885E-03  1.738000000000001E+03  1.696795114591813E-20
2459784.318000000 = A.D. 2022-Jul-23 19:37:55.2000 TDB 
   2.332561132846022E+02 -1.076076134646335E+02  1.718911337777434E+03
   3.689217593914908E-04  7.135408476553617E-04 -5.393429999733812E-06
   5.797343974543885E-03  1.738000000000000E+03 -8.284352618301207E-20
2459785.012000001 = A.D. 2022-Jul-24 12:17:16.8000 TDB 
   2.518770419010868E+02 -6.324454913449506E+01  1.718488313247412E+03
   2.508543698246796E-04  7.630280243797212E-04 -8.686176755146968E-06
   5.797343974543884E-03  1.738000000000000E+03  9.581901823577297E-20
2459785.706000000 = A.D. 2022-Jul-25 04:56:38.4000 TDB 
   2.632119297138130E+02 -1.649139889203991E+01  1.717874126302307E+03
   1.264162033087889E-04  7.930920065969794E-04 -1.175584163700657E-05
   5.797343974543885E-03  1.738000000000000E+03 -2.195852501236464E-20
2459786.400000000 = A.D. 2022-Jul-25 21:36:00.0000 TDB 
   2.669733370605675E+02  3.146177461092702E+01  1.717084562284886E+03
  -1.218350268165035E-06  8.029699595049567E-04 -1.452321766570752E-05
   5.797343974543885E-03  1.738000000000000E+03 -1.197737727947162E-20
2459787.094000001 = A.D. 2022-Jul-26 14:15:21.6000 TDB 
   2.630669886822621E+02  7.939459880418451E+01  1.716139929360765E+03
  -1.287946120953389E-04  7.924158280644324E-04 -1.691699231289040E-05
   5.797343974543886E-03  1.738000000000000E+03  4.790950911788649E-20
2459787.788000000 = A.D. 2022-Jul-27 06:54:43.2000 TDB 
   2.515940806092737E+02  1.260876177805662E+02  1.715064526845797E+03
  -2.530613837710811E-04  7.617060603376814E-04 -1.887564922641157E-05
   5.797343974543885E-03  1.738000000000000E+03 -2.794721365210046E-20
2459788.482000000 = A.D. 2022-Jul-27 23:34:04.8000 TDB 
   2.328485617896332E+02  1.703534540161189E+02  1.713886007871375E+03
  -3.708544226059916E-04  7.116317375790676E-04 -2.034908120305626E-05
   5.797343974543885E-03  1.738000000000000E+03 -3.992459093157208E-21
2459789.176000000 = A.D. 2022-Jul-28 16:13:26.4000 TDB 
   2.073094743889735E+02  2.110670969073329E+02  1.712634655269967E+03
  -4.791774216060506E-04  6.434773976859435E-04 -2.129986493651397E-05
   5.797343974543885E-03  1.738000000000001E+03  2.395475455894324E-20
2459789.870000001 = A.D. 2022-Jul-29 08:52:48.0000 TDB 
   1.756285662524992E+02  2.471945378484653E+02  1.711342591994360E+03
  -5.752783841081987E-04  5.589871973863646E-04 -2.170416624813147E-05
   5.797343974543884E-03  1.738000000000000E+03 -3.992459093157209E-21
2459790.564000000 = A.D. 2022-Jul-30 01:32:09.6000 TDB 
   1.386135113449648E+02  2.778190203869177E+02  1.710042948695697E+03
  -6.567194319866342E-04  4.603193904541752E-04 -2.155226318324610E-05
   5.797343974543885E-03  1.738000000000000E+03 -7.984918186314416E-21
2459791.258000000 = A.D. 2022-Jul-30 18:11:31.2000 TDB 
   9.720718581256952E+01  3.021642416653759E+02  1.708769011331020E+03
  -7.214382865858081E-04  3.499903954290621E-04 -2.084869084838401E-05
   5.797343974543885E-03  1.738000000000000E+03 -2.794721365210045E-20
2459791.952000001 = A.D. 2022-Jul-31 10:50:52.8000 TDB 
   5.246354577330035E+01  3.196139255455714E+02  1.707553371043566E+03
  -7.677999055490422E-04  2.308099795467420E-04 -1.961202425435929E-05
   5.797343974543886E-03  1.738000000000000E+03  1.197737727947162E-20
2459792.646000000 = A.D. 2022-Aug-01 03:30:14.4000 TDB 
   5.520735682700710E+00  3.297272857439531E+02  1.706427097333328E+03
  -7.946370377241560E-04  1.058092904459320E-04 -1.787432298979333E-05
   5.797343974543884E-03  1.738000000000000E+03 -7.984918186314417E-21
2459793.340000000 = A.D. 2022-Aug-01 20:09:36.0000 TDB 
  -4.242787868273110E+01  3.322500059884950E+02  1.705418953990817E+03
  -8.012787627257735E-04 -2.183637987182206E-05 -1.568026479957961E-05
   5.797343974543885E-03  1.738000000000001E+03 -9.981147732893017E-21
2459794.034000000 = A.D. 2022-Aug-02 12:48:57.6000 TDB 
  -9.016401214470088E+01  3.271204804489370E+02  1.704554675622002E+03
  -7.875664013215317E-04 -1.488881149681879E-04 -1.308599553360953E-05
   5.797343974543884E-03  1.738000000000001E+03  0.000000000000000E+00
2459794.728000001 = A.D. 2022-Aug-03 05:28:19.2000 TDB 
  -1.364753293860526E+02  3.144711782974347E+02  1.703856320964063E+03
  -7.538565074651600E-04 -2.721251476245574E-04 -1.015772230047912E-05
   5.797343974543884E-03  1.738000000000000E+03  2.395475455894325E-20
2459795.422000000 = A.D. 2022-Aug-03 22:07:40.8000 TDB 
  -1.801861063148878E+02  2.946251180975399E+02  1.703341717588427E+03
  -7.010109731210009E-04 -3.884258616264547E-04 -6.970076675900082E-06
   5.797343974543885E-03  1.738000000000001E+03 -4.990573866446509E-21
2459796.116000000 = A.D. 2022-Aug-04 14:47:02.4000 TDB 
  -2.201869194576929E+02  2.680875578571751E+02  1.703024010935227E+03
  -6.303745849881886E-04 -4.948460475603673E-04 -3.604276585545958E-06
   5.797343974543886E-03  1.738000000000000E+03  5.988688639735811E-20
2459796.810000001 = A.D. 2022-Aug-05 07:26:24.0000 TDB 
  -2.554626284312891E+02  2.355331223402412E+02  1.702911328800074E+03
  -5.437406616227360E-04 -5.886925322015087E-04 -1.461194080394949E-07
   5.797343974543886E-03  1.738000000000000E+03 -3.278183208522051E-20
2459797.504000000 = A.D. 2022-Aug-06 00:05:45.6000 TDB 
  -2.851179623342952E+02  1.977886982435303E+02  1.703006570275485E+03
  -4.433056659573241E-04 -6.675904317077251E-04  3.316155308428370E-06
   5.797343974543885E-03  1.738000000000000E+03  1.646889375927348E-20
2459798.198000000 = A.D. 2022-Aug-06 16:45:07.2000 TDB 
  -3.084000819283926E+02  1.558125280295566E+02  1.703307325639035E+03
  -3.316139290811517E-04 -7.295424415227660E-04  6.694088054259970E-06
   5.797343974543884E-03  1.738000000000000E+03 -2.994344319867905E-21
